[{"OBJECT_NAME":"OBJECT M","OBJECT_ID":"2024-205M","EPOCH":"2026-03-09T22:23:47.520096","MEAN_MOTION":15.27663844,"ECCENTRICITY":0.00036602,"INCLINATION":97.3915,"RA_OF_ASC_NODE":144.193,"ARG_OF_PERICENTER":310.2554,"MEAN_ANOMALY":49.8364,"EPHEMERIS_TYPE":0,"CLASSIFICATION_TYPE":"U","NORAD_CAT_ID":61905,"ELEMENT_SET_NO":999,"REV_AT_EPOCH":7334,"BSTAR":0.00036391974,"MEAN_MOTION_DOT":9.771e-5,"MEAN_MOTION_DDOT":0},{"OBJECT_NAME":"STARLINK-32890","OBJECT_ID":"2025-024T","EPOCH":"2026-03-09T02:43:55.229088","MEAN_MOTION":15.27592707,"ECCENTRICITY":0.00025882,"INCLINATION":43.0053,"RA_OF_ASC_NODE":328.1191,"ARG_OF_PERICENTER":263.0102,"MEAN_ANOMALY":97.0455,"EPHEMERIS_TYPE":0,"CLASSIFICATION_TYPE":"U","NORAD_CAT_ID":62896,"ELEMENT_SET_NO":999,"REV_AT_EPOCH":6218,"BSTAR":0.0016595665,"MEAN_MOTION_DOT":0.00045709,"MEAN_MOTION_DDOT":0}]
